FENGYUN 1C DEB          
1 30052U 99025PD  17345.94707333  .00000058  00000-0  88278-4 0  9991
2 30052  99.6308   8.1335 0296031 262.2097 168.1508 13.70081604545065
